*******************************************************************************
JPL/HORIZONS                165 Loreley (A876 PA)          2020-Jun-20 08:33:16
Rec #:     165 (+COV) Soln.date: 2020-May-20_01:00:13   # obs: 3445 (1876-2020)
 
IAU76/J2000 helio. ecliptic osc. elements (au, days, deg., period=Julian yrs):
 
  EPOCH=  2454889.5 ! 2009-Feb-27.00 (TDB)         Residual RMS= .30893
   EC= .0843109234472651   QR= 2.865526832512203   TP= 2454893.701642266
   OM= 302.6479590851641   W=  350.3946357557324   IN= 11.23946783109184
   A= 3.12936662223815     MA= 359.2519364774778   ADIST= 3.393206411964098
   PER= 5.53596            N= .178040741           ANGMOM= .030322192
   DAN= 2.86865            DDN= 3.38883            L= 293.2234884
   B= -1.8637513           MOID= 1.84852004        TP= 2009-Mar-03.2016422660
 
Asteroid physical parameters (km, seconds, rotational period in hours):
   GM= n.a.                RAD= 90.0415            ROTPER= 7.226
   H= 7.8                  G= .150                 B-V= .722
                           ALBEDO= .047            STYP= Cb
 
ASTEROID comments: 
1: soln ref.= JPL#45, OCC=0
2: source=ORB
*******************************************************************************
 
 
*******************************************************************************
Ephemeris / WWW_USER Sat Jun 20 08:33:17 2020 Pasadena, USA      / Horizons
*******************************************************************************
Target body name: 165 Loreley (A876 PA)           {source: JPL#45}
Center body name: Solar System Barycenter (0)     {source: DE431}
Center-site name: BODY CENTER
*******************************************************************************
Start time      : A.D. 1969-Jun-28 00:00:00.0000 TDB
Stop  time      : A.D. 2071-May-04 00:00:00.0000 TDB
Step-size       : 7200 minutes
*******************************************************************************
Center geodetic : 0.00000000,0.00000000,0.0000000 {E-lon(deg),Lat(deg),Alt(km)}
Center cylindric: 0.00000000,0.00000000,0.0000000 {E-lon(deg),Dxy(km),Dz(km)}
Center radii    : (undefined)                                                  
Small perturbers: Yes                             {source: SB431-N16}
Output units    : AU-D
Output type     : GEOMETRIC cartesian states
Output format   : 2 (position and velocity)
Reference frame : Ecliptic of J2000.0
*******************************************************************************
Initial IAU76/J2000 heliocentric ecliptic osculating elements (au, days, deg.):
  EPOCH=  2454889.5 ! 2009-Feb-27.00 (TDB)         Residual RMS= .30893        
   EC= .0843109234472651   QR= 2.865526832512203   TP= 2454893.701642266       
   OM= 302.6479590851641   W=  350.3946357557324   IN= 11.23946783109184       
  Equivalent ICRF heliocentric equatorial cartesian coordinates (au, au/d):
   X= 1.089003328965783E+00  Y=-2.389584273871824E+00  Z=-1.146889914019701E+00
  VX= 9.627570021133416E-03 VY= 2.766167003531755E-03 VZ= 3.410132668523986E-03
Asteroid physical parameters (km, seconds, rotational period in hours):        
   GM= n.a.                RAD= 90.0415            ROTPER= 7.226               
   H= 7.8                  G= .150                 B-V= .722                   
                           ALBEDO= .047            STYP= Cb                    
*******************************************************************************
            JDTDB,            Calendar Date (TDB),        delta-T,                      X,                      Y,                      Z,                     VX,                     VY,                     VZ,
******************************************************************************************************************************************************************************************************************
$$SOE
2440820.500000000, A.D. 1970-Aug-22 00:00:00.0000,      40.786787,  2.030403073626488E+00, -2.119739087006924E+00,  1.001489390754364E-01,  7.524602444891129E-03,  6.815585687626646E-03,  1.987098218472663E-03,
2440825.500000000, A.D. 1970-Aug-27 00:00:00.0000,      40.799656,  2.067728317452450E+00, -2.085352960130820E+00,  1.100693192615561E-01,  7.405166903391929E-03,  6.938494586887917E-03,  1.980959133308396E-03,
2440830.500000000, A.D. 1970-Sep-01 00:00:00.0000,      40.812535,  2.104451501284820E+00, -2.050357874589458E+00,  1.199575866858966E-01,  7.283786555723032E-03,  7.059163457132045E-03,  1.974253822331318E-03,
2440835.500000000, A.D. 1970-Sep-06 00:00:00.0000,      40.825424,  2.140563023186465E+00, -2.014765114928777E+00,  1.298109210406444E-01,  7.160510331987949E-03,  7.177558747944508E-03,  1.966986652399953E-03,
2440840.500000000, A.D. 1970-Sep-11 00:00:00.0000,      40.838322,  2.176053527227012E+00, -1.978586130290583E+00,  1.396265244230762E-01,  7.035387698175924E-03,  7.293648172815728E-03,  1.959162217768942E-03,
2440845.500000000, A.D. 1970-Sep-16 00:00:00.0000,      40.851230,  2.210913906062933E+00, -1.941832528072595E+00,  1.494016224585108E-01,  6.908468616402852E-03,  7.407400717133297E-03,  1.950785334440945E-03,
2440850.500000000, A.D. 1970-Sep-21 00:00:00.0000,      40.864150,  2.245135303318897E+00, -1.904516067551215E+00,  1.591334653944929E-01,  6.779803505248917E-03,  7.518786645092783E-03,  1.941861034314464E-03,
2440855.500000000, A.D. 1970-Sep-26 00:00:00.0000,      40.877083,  2.278709115771764E+00, -1.866648653472794E+00,  1.688193291653444E-01,  6.649443200516421E-03,  7.627777505334141E-03,  1.932394559196354E-03,
2440860.500000000, A.D. 1970-Oct-01 00:00:00.0000,      40.890029,  2.311626995339760E+00, -1.828242329620509E+00,  1.784565164265717E-01,  6.517438916543789E-03,  7.734346135033850E-03,  1.922391354737902E-03,
2440865.500000000, A.D. 1970-Oct-06 00:00:00.0000,      40.902988,  2.343880850879336E+00, -1.789309272364826E+00,  1.880423575587782E-01,  6.383842207923782E-03,  7.838466662385945E-03,  1.911857064294636E-03,
2440870.500000000, A.D. 1970-Oct-11 00:00:00.0000,      40.915957,  2.375462849791219E+00, -1.749861784205179E+00,  1.975742116406100E-01,  6.248704931450420E-03,  7.940114507689760E-03,  1.900797522677288E-03,
2440875.500000000, A.D. 1970-Oct-16 00:00:00.0000,      40.928937,  2.406365419436931E+00, -1.709912287309315E+00,  2.070494673902102E-01,  6.112079208406030E-03,  8.039266383180581E-03,  1.889218749813787E-03,
2440880.500000000, A.D. 1970-Oct-21 00:00:00.0000,      40.941930,  2.436581248368056E+00, -1.669473317056884E+00,  2.164655440748906E-01,  5.974017387381113E-03,  8.135900291483556E-03,  1.877126944381882E-03,
2440885.500000000, A.D. 1970-Oct-26 00:00:00.0000,      40.954936,  2.466103287370950E+00, -1.628557515594391E+00,  2.258198923889486E-01,  5.834572007628396E-03,  8.229995522611768E-03,  1.864528477434533E-03,
2440890.500000000, A.D. 1970-Oct-31 00:00:00.0000,      40.967955,  2.494924750329412E+00, -1.587177625408659E+00,  2.351099952995669E-01,  5.693795762874993E-03,  8.321532649587734E-03,  1.851429886004192E-03,
2440895.500000000, A.D. 1970-Nov-05 00:00:00.0000,      40.980985,  2.523039114907485E+00, -1.545346482925357E+00,  2.443333688606482E-01,  5.551741465571897E-03,  8.410493522815225E-03,  1.837837866671144E-03,
2440900.500000000, A.D. 1970-Nov-10 00:00:00.0000,      40.994024,  2.550440123054681E+00, -1.503077012138573E+00,  2.534875629943937E-01,  5.408462011619286E-03,  8.496861263299254E-03,  1.823759269093049E-03,
2440905.500000000, A.D. 1970-Nov-15 00:00:00.0000,      41.007073,  2.577121781336141E+00, -1.460382218277031E+00,  2.625701622404420E-01,  5.264010345627467E-03,  8.580620254781832E-03,  1.809201089501113E-03,
2440910.500000000, A.D. 1970-Nov-20 00:00:00.0000,      41.020131,  2.603078361090586E+00, -1.417275181512258E+00,  2.715787864724309E-01,  5.118439426781740E-03,  8.661756134829939E-03,  1.794170464175480E-03,
2440915.500000000, A.D. 1970-Nov-25 00:00:00.0000,      41.033200,  2.628304398419207E+00, -1.373769050713873E+00,  2.805110915819125E-01,  4.971802195360904E-03,  8.740255784895862E-03,  1.778674662912306E-03,
2440920.500000000, A.D. 1970-Nov-30 00:00:00.0000,      41.046278,  2.652794694008860E+00, -1.329877037257129E+00,  2.893647701295995E-01,  4.824151539945381E-03,  8.816107319364960E-03,  1.762721082492441E-03,
2440925.500000000, A.D. 1970-Dec-05 00:00:00.0000,      41.059363,  2.676544312792987E+00, -1.285612408887703E+00,  2.981375519639590E-01,  4.675540265282206E-03,  8.889300073616978E-03,  1.746317240143843E-03,
2440930.500000000, A.D. 1970-Dec-10 00:00:00.0000,      41.072453,  2.699548583453431E+00, -1.240988483648489E+00,  3.068272048070642E-01,  4.526021060788752E-03,  8.959824591171187E-03,  1.729470766986963E-03,
2440935.500000000, A.D. 1970-Dec-15 00:00:00.0000,      41.085547,  2.721803097766301E+00, -1.196018623872616E+00,  3.154315348075867E-01,  4.375646469666465E-03,  9.027672610096016E-03,  1.712189401440882E-03,
2440940.500000000, A.D. 1970-Dec-20 00:00:00.0000,      41.098645,  2.743303709795298E+00, -1.150716230246010E+00,  3.239483870608185E-01,  4.224468858817593E-03,  9.092837048782703E-03,  1.694480982643050E-03,
2440945.500000000, A.D. 1970-Dec-25 00:00:00.0000,      41.111749,  2.764046534937267E+00, -1.105094735942733E+00,  3.323756460960321E-01,  4.072540389871054E-03,  9.155311991024456E-03,  1.676353443985856E-03,
2440950.500000000, A.D. 1970-Dec-30 00:00:00.0000,      41.124855,  2.784027948825934E+00, -1.059167600837269E+00,  3.407112363319653E-01,  3.919912991414157E-03,  9.215092670118503E-03,  1.657814806827476E-03,
2440955.500000000, A.D. 1971-Jan-04 00:00:00.0000,      41.137962,  2.803244586099264E+00, -1.012948305798984E+00,  3.489531225011595E-01,  3.766638332125797E-03,  9.272175451914675E-03,  1.638873174298965E-03,
